{"type": "FeatureCollection", "features": [ {"type": "Feature", "properties": {"norad_id": 66650, "name": "BEE-1000", "group": "last-30-days", "lat": 17.90338164779475, "lon": 95.104360056523, "alt_km": 593.8740097402815, "timestamp": "2025-12-11T08:58:25.855601+00:00", "meta": {"OBJECT_NAME": "BEE-1000", "OBJECT_ID": "2025-274A", "EPOCH": "2025-12-10T17:45:36.533952", "MEAN_MOTION": 14.91649829, "ECCENTRICITY": 0.00104013, "INCLINATION": 97.7386, "RA_OF_ASC_NODE": 271.9644, "ARG_OF_PERICENTER": 259.123, "MEAN_ANOMALY": 100.8819, "EPHEMERIS_TYPE": 0, "CLASSIFICATION_TYPE": "U", "NORAD_CAT_ID": 66650, "ELEMENT_SET_NO": 999, "REV_AT_EPOCH": 210, "BSTAR": 0.00029918321, "MEAN_MOTION_DOT": 2.953e-05, "MEAN_MOTION_DDOT": 0}, "tle": {"line1": "1 66650U 25274A   25344.74000618  .00002953  00000+0  29918-3 0  9997", "line2": "2 66650  97.7386 271.9644 0010401 259.1230 100.8819 14.91649829  2109"}}, "geometry": {"type": "Point", "coordinates": [95.104360056523, 17.90338164779475]}}, {"type": "Feature", "properties": {"norad_id": 66651, "name": "2025-274B", "group": "last-30-days", "lat": 13.627648005075601, "lon": 94.4766880731718, "alt_km": 593.4758244196064, "timestamp": "2025-12-11T08:58:25.855611+00:00", "meta": {"OBJECT_NAME": "2025-274B", "OBJECT_ID": "2025-274B", "EPOCH": "2025-12-10T17:44:31.543872", "MEAN_MOTION": 14.91772462, "ECCENTRICITY": 0.0010689, "INCLINATION": 97.7379, "RA_OF_ASC_NODE": 271.9647, "ARG_OF_PERICENTER": 258.2038, "MEAN_ANOMALY": 101.7982, "EPHEMERIS_TYPE": 0, "CLASSIFICATION_TYPE": "U", "NORAD_CAT_ID": 66651, "ELEMENT_SET_NO": 999, "REV_AT_EPOCH": 210, "BSTAR": 0.00064911816, "MEAN_MOTION_DOT": 6.496e-05, "MEAN_MOTION_DDOT": 0}, "tle": {"line1": "1 66651U 25274B   25344.73925398  .00006496  00000+0  64912-3 0  9997", "line2": "2 66651  97.7379 271.9647 0010689 258.2038 101.7982 14.91772462  2100"}}, "geometry": {"type": "Point", "coordinates": [94.4766880731718, 13.627648005075601]}}, {"type": "Feature", "properties": {"norad_id": 66652, "name": "2025-274C", "group": "last-30-days", "lat": 6.4739259960773134, "lon": 93.47563832786324, "alt_km": 594.1744157442599, "timestamp": "2025-12-11T08:58:25.855623+00:00", "meta": {"OBJECT_NAME": "2025-274C", "OBJECT_ID": "2025-274C", "EPOCH": "2025-12-10T16:06:04.524480", "MEAN_MOTION": 14.91882404, "ECCENTRICITY": 0.00103623, "INCLINATION": 97.7385, "RA_OF_ASC_NODE": 271.9013, "ARG_OF_PERICENTER": 265.4734, "MEAN_ANOMALY": 94.5301, "EPHEMERIS_TYPE": 0, "CLASSIFICATION_TYPE": "U", "NORAD_CAT_ID": 66652, "ELEMENT_SET_NO": 999, "REV_AT_EPOCH": 209, "BSTAR": 0.00039313559, "MEAN_MOTION_DOT": 3.922e-05, "MEAN_MOTION_DDOT": 0}, "tle": {"line1": "1 66652U 25274C   25344.67088570  .00003922  00000+0  39314-3 0  9992", "line2": "2 66652  97.7385 271.9013 0010362 265.4734  94.5301 14.91882404  2096"}}, "geometry": {"type": "Point", "coordinates": [93.47563832786324, 6.4739259960773134]}}, {"type": "Feature", "properties": {"norad_id": 66653, "name": "2025-274D", "group": "last-30-days", "lat": 6.141827122865573, "lon": 93.42982336948963, "alt_km": 593.595427480097, "timestamp": "2025-12-11T08:58:25.855634+00:00", "meta": {"OBJECT_NAME": "2025-274D", "OBJECT_ID": "2025-274D", "EPOCH": "2025-12-10T17:42:33.939648", "MEAN_MOTION": 14.91887801, "ECCENTRICITY": 0.00112374, "INCLINATION": 97.7384, "RA_OF_ASC_NODE": 271.967, "ARG_OF_PERICENTER": 261.1444, "MEAN_ANOMALY": 98.8502, "EPHEMERIS_TYPE": 0, "CLASSIFICATION_TYPE": "U", "NORAD_CAT_ID": 66653, "ELEMENT_SET_NO": 999, "REV_AT_EPOCH": 210, "BSTAR": 0.00041520102, "MEAN_MOTION_DOT": 4.146e-05, "MEAN_MOTION_DDOT": 0}, "tle": {"line1": "1 66653U 25274D   25344.73789282  .00004146  00000+0  41520-3 0  9999", "line2": "2 66653  97.7384 271.9670 0011237 261.1444  98.8502 14.91887801  2106"}}, "geometry": {"type": "Point", "coordinates": [93.42982336948963, 6.141827122865573]}}, {"type": "Feature", "properties": {"norad_id": 66654, "name": "JACK E", "group": "last-30-days", "lat": -2.600789395613233, "lon": 92.24178637701813, "alt_km": 593.1698215945353, "timestamp": "2025-12-11T08:58:25.855644+00:00", "meta": {"OBJECT_NAME": "JACK E", "OBJECT_ID": "2025-274E", "EPOCH": "2025-12-10T16:03:44.032032", "MEAN_MOTION": 14.92062885, "ECCENTRICITY": 0.00118418, "INCLINATION": 97.7385, "RA_OF_ASC_NODE": 271.9037, "ARG_OF_PERICENTER": 263.0927, "MEAN_ANOMALY": 96.8945, "EPHEMERIS_TYPE": 0, "CLASSIFICATION_TYPE": "U", "NORAD_CAT_ID": 66654, "ELEMENT_SET_NO": 999, "REV_AT_EPOCH": 209, "BSTAR": 0.00045145155, "MEAN_MOTION_DOT": 4.534e-05, "MEAN_MOTION_DDOT": 0}, "tle": {"line1": "1 66654U 25274E   25344.66925963  .00004534  00000+0  45145-3 0  9998", "line2": "2 66654  97.7385 271.9037 0011841 263.0927  96.8945 14.92062885  2098"}}, "geometry": {"type": "Point", "coordinates": [92.24178637701813, -2.600789395613233]}}, {"type": "Feature", "properties": {"norad_id": 66655, "name": "2025-274F", "group": "last-30-days", "lat": -11.508391089657465, "lon": 91.01365176967998, "alt_km": 601.1798170278325, "timestamp": "2025-12-11T08:58:25.855655+00:00", "meta": {"OBJECT_NAME": "2025-274F", "OBJECT_ID": "2025-274F", "EPOCH": "2025-12-10T14:24:20.623680", "MEAN_MOTION": 14.91412977, "ECCENTRICITY": 0.0004698, "INCLINATION": 97.7323, "RA_OF_ASC_NODE": 271.8405, "ARG_OF_PERICENTER": 22.2473, "MEAN_ANOMALY": 337.8948, "EPHEMERIS_TYPE": 0, "CLASSIFICATION_TYPE": "U", "NORAD_CAT_ID": 66655, "ELEMENT_SET_NO": 999, "REV_AT_EPOCH": 208, "BSTAR": 1.9321e-05, "MEAN_MOTION_DOT": 1.38e-06, "MEAN_MOTION_DDOT": 0}, "tle": {"line1": "1 66655U 25274F   25344.60023870  .00000138  00000+0  19321-4 0  9993", "line2": "2 66655  97.7323 271.8405 0004698  22.2473 337.8948 14.91412977  2082"}}, "geometry": {"type": "Point", "coordinates": [91.01365176967998, -11.508391089657465]}}, {"type": "Feature", "properties": {"norad_id": 66656, "name": "2025-274G", "group": "last-30-days", "lat": -12.189333974170161, "lon": 90.9162022236491, "alt_km": 592.4653791392057, "timestamp": "2025-12-11T08:58:25.855668+00:00", "meta": {"OBJECT_NAME": "2025-274G", "OBJECT_ID": "2025-274G", "EPOCH": "2025-12-10T12:48:08.872128", "MEAN_MOTION": 14.92251024, "ECCENTRICITY": 0.0012453, "INCLINATION": 97.7383, "RA_OF_ASC_NODE": 271.7738, "ARG_OF_PERICENTER": 265.4546, "MEAN_ANOMALY": 94.5251, "EPHEMERIS_TYPE": 0, "CLASSIFICATION_TYPE": "U", "NORAD_CAT_ID": 66656, "ELEMENT_SET_NO": 999, "REV_AT_EPOCH": 207, "BSTAR": 0.0004802, "MEAN_MOTION_DOT": 4.85e-05, "MEAN_MOTION_DDOT": 0}, "tle": {"line1": "1 66656U 25274G   25344.53343602  .00004850  00000+0  48020-3 0  9996", "line2": "2 66656  97.7383 271.7738 0012453 265.4546  94.5251 14.92251024  2075"}}, "geometry": {"type": "Point", "coordinates": [90.9162022236491, -12.189333974170161]}}, {"type": "Feature", "properties": {"norad_id": 66657, "name": "SPIRONE", "group": "last-30-days", "lat": -21.56250247611401, "lon": 89.52288691991136, "alt_km": 594.3391781927976, "timestamp": "2025-12-11T08:58:25.855679+00:00", "meta": {"OBJECT_NAME": "SPIRONE", "OBJECT_ID": "2025-274H", "EPOCH": "2025-12-10T19:11:56.874048", "MEAN_MOTION": 14.92433181, "ECCENTRICITY": 0.00108905, "INCLINATION": 97.7383, "RA_OF_ASC_NODE": 272.0392, "ARG_OF_PERICENTER": 283.2877, "MEAN_ANOMALY": 76.7127, "EPHEMERIS_TYPE": 0, "CLASSIFICATION_TYPE": "U", "NORAD_CAT_ID": 66657, "ELEMENT_SET_NO": 999, "REV_AT_EPOCH": 211, "BSTAR": 0.00048337955, "MEAN_MOTION_DOT": 4.903e-05, "MEAN_MOTION_DDOT": 0}, "tle": {"line1": "1 66657U 25274H   25344.79996382  .00004903  00000+0  48338-3 0  9995", "line2": "2 66657  97.7383 272.0392 0010890 283.2877  76.7127 14.92433181  2119"}}, "geometry": {"type": "Point", "coordinates": [89.52288691991136, -21.56250247611401]}}, {"type": "Feature", "properties": {"norad_id": 66658, "name": "2025-274J", "group": "last-30-days", "lat": -30.65798171701857, "lon": 87.98374977430012, "alt_km": 593.5765697629122, "timestamp": "2025-12-11T08:58:25.855689+00:00", "meta": {"OBJECT_NAME": "2025-274J", "OBJECT_ID": "2025-274J", "EPOCH": "2025-12-10T15:56:30.058656", "MEAN_MOTION": 14.92603554, "ECCENTRICITY": 0.00114737, "INCLINATION": 97.7383, "RA_OF_ASC_NODE": 271.9095, "ARG_OF_PERICENTER": 286.8459, "MEAN_ANOMALY": 73.1502, "EPHEMERIS_TYPE": 0, "CLASSIFICATION_TYPE": "U", "NORAD_CAT_ID": 66658, "ELEMENT_SET_NO": 999, "REV_AT_EPOCH": 209, "BSTAR": 0.00045894331, "MEAN_MOTION_DOT": 4.673e-05, "MEAN_MOTION_DDOT": 0}, "tle": {"line1": "1 66658U 25274J   25344.66423679  .00004673  00000+0  45894-3 0  9994", "line2": "2 66658  97.7383 271.9095 0011473 286.8459  73.1502 14.92603554  2099"}}, "geometry": {"type": "Point", "coordinates": [87.98374977430012, -30.65798171701857]}}, {"type": "Feature", "properties": {"norad_id": 66659, "name": "JACK K", "group": "last-30-days", "lat": -40.3234630300192, "lon": 85.98392501511603, "alt_km": 592.2347286341092, "timestamp": "2025-12-11T08:58:25.855702+00:00", "meta": {"OBJECT_NAME": "JACK K", "OBJECT_ID": "2025-274K", "EPOCH": "2025-12-10T07:51:22.608000", "MEAN_MOTION": 14.92785796, "ECCENTRICITY": 0.00122069, "INCLINATION": 97.7384, "RA_OF_ASC_NODE": 271.5826, "ARG_OF_PERICENTER": 289.5073, "MEAN_ANOMALY": 70.4827, "EPHEMERIS_TYPE": 0, "CLASSIFICATION_TYPE": "U", "NORAD_CAT_ID": 66659, "ELEMENT_SET_NO": 999, "REV_AT_EPOCH": 204, "BSTAR": 0.00042579045, "MEAN_MOTION_DOT": 4.352e-05, "MEAN_MOTION_DDOT": 0}, "tle": {"line1": "1 66659U 25274K   25344.32734500  .00004352  00000+0  42579-3 0  9997", "line2": "2 66659  97.7384 271.5826 0012206 289.5073  70.4827 14.92785796  2040"}}, "geometry": {"type": "Point", "coordinates": [85.98392501511603, -40.3234630300192]}}]}